ONEWEB-0578             
1 56067U 23043X   25201.55332703  .00000110  00000+0  23413-3 0  9991
2 56067  87.9272 310.1336 0001881 101.6658 258.4688 13.21827568114429
ONEWEB-0579             
1 56068U 23043Y   25201.54387220  .00000110  00000+0  23481-3 0  9990
2 56068  87.9274 310.1211 0002266  99.2020 260.9370 13.21825482114437
ONEWEB-0581             
1 56069U 23043Z   25201.49953415  .00000076  00000+0  16507-3 0  9992
2 56069  87.9053 294.9035 0002266 111.2712 248.8661 13.16594979115313
ONEWEB-0609             
1 56070U 23043AA  25201.87804397  .00000025  00000+0  33541-4 0  9992
2 56070  87.9082 325.2793 0001911  96.1858 263.9490 13.15548634113787
ONEWEB-0613             
1 56071U 23043AB  25201.64511902  .00000127  00000+0  30200-3 0  9996
2 56071  87.9087 325.3377 0002176  98.1639 261.9738 13.15548702112840
ONEWEB-0630             
1 56072U 23043AC  25201.64035424  .00000156  00000+0  38032-3 0  9990
2 56072  87.9082 325.3151 0002219  94.5346 265.6038 13.15549218112835
ONEWEB-0632             
1 56073U 23043AD  25201.86377346  .00000189  00000+0  46707-3 0  9991
2 56073  87.9081 325.2906 0002007 104.4174 255.7179 13.15549532113776
ONEWEB-0633             
1 56074U 23043AE  25201.85742062 -.00000220  00000+0 -61925-3 0  9999
2 56074  87.9073 325.2583 0002149  89.1193 271.0183 13.15547861113753
